CTC1_L_00469021-05
1 10124U 26144QO  26075.70035880  .00000000  00000+0  00000-0 0  9995
2 10124  87.4000 240.0000 0000000   0.0000  40.0000 13.56072486    12
CTC1_L_00469021-06
1 10125U 24166RA  26075.70035880  .00000000  00000+0  00000-0 0  9998
2 10125  87.4000 240.0000 0000000   0.0000 100.0000 13.56072486    10
CTC1_L_00469022-01
1 10126U 26648CO  26075.70035880  .00000000  00000+0  00000-0 0  9996
2 10126  87.4000 252.0000 0000000   0.0000 168.0000 13.56072486    18
CTC1_L_00469022-02
1 10127U 26233CD  26075.70035880  .00000000  00000+0  00000-0 0  9997
2 10127  87.4000 252.0000 0000000   0.0000 228.0000 13.56072486    16
CTC1_L_00469022-03
1 10128U 22652IQ  26075.70035880  .00000000  00000+0  00000-0 0  9999
2 10128  87.4000 252.0000 0000000   0.0000 288.0000 13.56072486    13
CTC1_L_00469022-04
1 10129U 23505TV  26075.70035880  .00000000  00000+0  00000-0 0  9998
2 10129  87.4000 252.0000 0000000   0.0000 348.0000 13.56072486    11
CTC1_L_00469022-05
1 10130U 23334SR  26075.70035880  .00000000  00000+0  00000-0 0  9990
2 10130  87.4000 252.0000 0000000   0.0000  48.0000 13.56072486    10
CTC1_L_00469022-06
1 10131U 22869CL  26075.70035880  .00000000  00000+0  00000-0 0  9993
2 10131  87.4000 252.0000 0000000   0.0000 108.0000 13.56072486    18
CTC1_L_00469023-01
1 10132U 23544FA  26075.70035880  .00000000  00000+0  00000-0 0  9995
2 10132  87.4000 264.0000 0000000   0.0000 176.0000 13.56072486    17
CTC1_L_00469023-02
1 10133U 26837VM  26075.70035880  .00000000  00000+0  00000-0 0  9994
2 10133  87.4000 264.0000 0000000   0.0000 236.0000 13.56072486    15
CTC1_L_00469023-03
1 10134U 22916FU  26075.70035880  .00000000  00000+0  00000-0 0  9999
2 10134  87.4000 264.0000 0000000   0.0000 296.0000 13.56072486    12
CTC1_L_00469023-04
1 10135U 23432JB  26075.70035880  .00000000  00000+0  00000-0 0  9994
2 10135  87.4000 264.0000 0000000   0.0000 356.0000 13.56072486    10
CTC1_L_00469023-05
1 10136U 23373UD  26075.70035880  .00000000  00000+0  00000-0 0  9999
2 10136  87.4000 264.0000 0000000   0.0000  56.0000 13.56072486    18
CTC1_L_00469023-06
1 10137U 26541BI  26075.70035880  .00000000  00000+0  00000-0 0  9990
2 10137  87.4000 264.0000 0000000   0.0000 116.0000 13.56072486    16
CTC1_L_00469024-01
1 10138U 24315TK  26075.70035880  .00000000  00000+0  00000-0 0  9998
2 10138  87.4000 276.0000 0000000   0.0000 184.0000 13.56072486    15
CTC1_L_00469024-02
1 10139U 25982TM  26075.70035880  .00000000  00000+0  00000-0 0  9990
2 10139  87.4000 276.0000 0000000   0.0000 244.0000 13.56072486    13
CTC1_L_00469024-03
1 10140U 26216EM  26075.70035880  .00000000  00000+0  00000-0 0  9993
2 10140  87.4000 276.0000 0000000   0.0000 304.0000 13.56072486    12
CTC1_L_00469024-04
1 10141U 23048BR  26075.70035880  .00000000  00000+0  00000-0 0  9994
2 10141  87.4000 276.0000 0000000   0.0000   4.0000 13.56072486    10
CTC1_L_00469024-05
1 10142U 24077YO  26075.70035880  .00000000  00000+0  00000-0 0  9998
2 10142  87.4000 276.0000 0000000   0.0000  64.0000 13.56072486    17
CTC1_L_00469024-06
1 10143U 25880KY  26075.70035880  .00000000  00000+0  00000-0 0  9992
2 10143  87.4000 276.0000 0000000   0.0000 124.0000 13.56072486    15
CTC1_L_00469025-01
1 10144U 25328JS  26075.70035880  .00000000  00000+0  00000-0 0  9990
2 10144  87.4000 288.0000 0000000   0.0000 192.0000 13.56072486    14
CTC1_L_00469025-02
1 10145U 26501AY  26075.70035880  .00000000  00000+0  00000-0 0  9995
2 10145  87.4000 288.0000 0000000   0.0000 252.0000 13.56072486    12
CTC1_L_00469025-03
1 10146U 25142OX  26075.70035880  .00000000  00000+0  00000-0 0  9996
2 10146  87.4000 288.0000 0000000   0.0000 312.0000 13.56072486    10
CTC1_L_00469025-04
1 10147U 26106ZU  26075.70035880  .00000000  00000+0  00000-0 0  9998
2 10147  87.4000 288.0000 0000000   0.0000  12.0000 13.56072486    18
CTC1_L_00469025-05
1 10148U 23983UH  26075.70035880  .00000000  00000+0  00000-0 0  9999
2 10148  87.4000 288.0000 0000000   0.0000  72.0000 13.56072486    15
CTC1_L_00469025-06
1 10149U 25023ET  26075.70035880  .00000000  00000+0  00000-0 0  9997
2 10149  87.4000 288.0000 0000000   0.0000 132.0000 13.56072486    13
CTC1_L_00469026-01
1 10150U 26711SV  26075.70035880  .00000000  00000+0  00000-0 0  9994
2 10150  87.4000 300.0000 0000000   0.0000 200.0000 13.56072486    16
CTC1_L_00469026-02
1 10151U 23900US  26075.70035880  .00000000  00000+0  00000-0 0  9992
2 10151  87.4000 300.0000 0000000   0.0000 260.0000 13.56072486    13
CTC1_L_00469026-03
1 10152U 22282V   26075.70035880  .00000000  00000+0  00000-0 0  9995
2 10152  87.4000 300.0000 0000000   0.0000 320.0000 13.56072486    11
CTC1_L_00469026-04
1 10153U 24205HU  26075.70035880  .00000000  00000+0  00000-0 0  9993
2 10153  87.4000 300.0000 0000000   0.0000  20.0000 13.56072486    19
CTC1_L_00469026-05
1 10154U 22312KI  26075.70035880  .00000000  00000+0  00000-0 0  9991
2 10154  87.4000 300.0000 0000000   0.0000  80.0000 13.56072486    16
CTC1_L_00469026-06
1 10155U 23323UD  26075.70035880  .00000000  00000+0  00000-0 0  9995
2 10155  87.4000 300.0000 0000000   0.0000 140.0000 13.56072486    14
CTC1_L_00469027-01
1 10156U 23661HS  26075.70035880  .00000000  00000+0  00000-0 0  9991
2 10156  87.4000 312.0000 0000000   0.0000 208.0000 13.56072486    13
CTC1_L_00469027-02
1 10157U 23009BY  26075.70035880  .00000000  00000+0  00000-0 0  9998
2 10157  87.4000 312.0000 0000000   0.0000 268.0000 13.56072486    10
CTC1_L_00469027-03
1 10158U 24660IA  26075.70035880  .00000000  00000+0  00000-0 0  9993
2 10158  87.4000 312.0000 0000000   0.0000 328.0000 13.56072486    18
CTC1_L_00469027-04
1 10159U 26704IS  26075.70035880  .00000000  00000+0  00000-0 0  9995
2 10159  87.4000 312.0000 0000000   0.0000  28.0000 13.56072486    16
CTC1_L_00469027-05
1 10160U 26542NG  26075.70035880  .00000000  00000+0  00000-0 0  9997
2 10160  87.4000 312.0000 0000000   0.0000  88.0000 13.56072486    14
CTC1_L_00469027-06
1 10161U 22769QA  26075.70035880  .00000000  00000+0  00000-0 0  9995
2 10161  87.4000 312.0000 0000000   0.0000 148.0000 13.56072486    12
CTC1_L_00469028-01
1 10162U 25926AV  26075.70035880  .00000000  00000+0  00000-0 0  9994
2 10162  87.4000 324.0000 0000000   0.0000 216.0000 13.56072486    12
CTC1_L_00469028-02
1 10163U 23446YT  26075.70035880  .00000000  00000+0  00000-0 0  9990
2 10163  87.4000 324.0000 0000000   0.0000 276.0000 13.56072486    19
CTC1_L_00469028-03
1 10164U 26025EN  26075.70035880  .00000000  00000+0  00000-0 0  9997
2 10164  87.4000 324.0000 0000000   0.0000 336.0000 13.56072486    17
CTC1_L_00469028-04
1 10165U 23950SB  26075.70035880  .00000000  00000+0  00000-0 0  9992
2 10165  87.4000 324.0000 0000000   0.0000  36.0000 13.56072486    15
CTC1_L_00469028-05
1 10166U 26615UY  26075.70035880  .00000000  00000+0  00000-0 0  9994
2 10166  87.4000 324.0000 0000000   0.0000  96.0000 13.56072486    12
CTC1_L_00469028-06
1 10167U 23005HG  26075.70035880  .00000000  00000+0  00000-0 0  9995
2 10167  87.4000 324.0000 0000000   0.0000 156.0000 13.56072486    10
CTC1_L_00469029-01
1 10168U 24807AI  26075.70035880  .00000000  00000+0  00000-0 0  9997
2 10168  87.4000 336.0000 0000000   0.0000 224.0000 13.56072486    10
CTC1_L_00469029-02
1 10169U 25132LE  26075.70035880  .00000000  00000+0  00000-0 0  9990
2 10169  87.4000 336.0000 0000000   0.0000 284.0000 13.56072486    17
CTC1_L_00469029-03
1 10170U 26612MF  26075.70035880  .00000000  00000+0  00000-0 0  9996
2 10170  87.4000 336.0000 0000000   0.0000 344.0000 13.56072486    16
CTC1_L_00469029-04
1 10171U 24561SZ  26075.70035880  .00000000  00000+0  00000-0 0  9998
2 10171  87.4000 336.0000 0000000   0.0000  44.0000 13.56072486    14
CTC1_L_00469029-05
1 10172U 23385IA  26075.70035880  .00000000  00000+0  00000-0 0  9992
2 10172  87.4000 336.0000 0000000   0.0000 104.0000 13.56072486    12
CTC1_L_00469029-06
1 10173U 23062N   26075.70035880  .00000000  00000+0  00000-0 0  9995
2 10173  87.4000 336.0000 0000000   0.0000 164.0000 13.56072486    19
CTC1_L_00469030-01
1 10174U 23728R   26075.70035880  .00000000  00000+0  00000-0 0  9995
2 10174  87.4000 348.0000 0000000   0.0000 232.0000 13.56072486    19
CTC1_L_00469030-02
1 10175U 22508JZ  26075.70035880  .00000000  00000+0  00000-0 0  9991
2 10175  87.4000 348.0000 0000000   0.0000 292.0000 13.56072486    16
CTC1_L_00469030-03
1 10176U 23725FR  26075.70035880  .00000000  00000+0  00000-0 0  9994
2 10176  87.4000 348.0000 0000000   0.0000 352.0000 13.56072486    14
CTC1_L_00469030-04
1 10177U 23509JW  26075.70035880  .00000000  00000+0  00000-0 0  9995
2 10177  87.4000 348.0000 0000000   0.0000  52.0000 13.56072486    12
CTC1_L_00469030-05
1 10178U 26559DM  26075.70035880  .00000000  00000+0  00000-0 0  9994
2 10178  87.4000 348.0000 0000000   0.0000 112.0000 13.56072486    10
CTC1_L_00469030-06
1 10179U 26973WK  26075.70035880  .00000000  00000+0  00000-0 0  9995
2 10179  87.4000 348.0000 0000000   0.0000 172.0000 13.56072486    17
